BEESAT-4                
1 41619U 16040W   21280.20934664  .00004278  00000-0  16808-3 0  9996
2 41619  97.2573 333.1377 0008845 300.4495  59.5870 15.26178225282053
CAS-2T & KS-1Q          
1 41847U 16066G   21280.41354231  .00000253  00000-0  49217-4 0  9996
2 41847  98.5892 339.9427 0364027 246.0653 110.2013 14.38246444257970
NAYIF-1 (EO-88)         
1 42017U 17008BX  21280.44112412  .00004968  00000-0  17934-3 0  9996
2 42017  97.3053 346.0197 0007430  76.9744 283.2326 15.28925312258362
ZHUHAI-1 02 (CAS-4B)    
1 42759U 17034B   21280.47311837  .00001256  00000-0  88313-4 0  9990
2 42759  43.0182 285.1569 0007049 150.8826   9.4050 15.10420391238088
ZHUHAI-1 01 (CAS-4A)    
1 42761U 17034D   21280.52036771  .00001142  00000-0  81325-4 0  9990
2 42761  43.0186 283.8686 0007383 151.4376 350.6491 15.10506592238097
MAX VALIER SAT          
1 42778U 17036P   21280.39804909  .00002761  00000-0  11648-3 0  9999
2 42778  97.2433 325.2953 0013041 135.8098 224.4184 15.24036899238331
RADFXSAT (FOX-1B)       
1 43017U 17073E   21280.52254736  .00001863  00000-0  14876-3 0  9997
2 43017  97.6938 180.0080 0252697 294.8313  62.6812 14.79819298209696
FOX-1D (AO-92)          
1 43137U 18004AC  21280.17294324  .00003350  00000-0  13401-3 0  9999
2 43137  97.3982 353.0407 0009007 166.9914 193.1558 15.25746013207692
DIWATA-2B               
1 43678U 18084H   21280.60373873  .00000544  00000-0  59666-4 0  9998
2 43678  97.9377  46.5541 0010991  46.6707 313.5394 14.91805083160157
ES'HAIL 2               
1 43700U 18090A   21280.53472213  .00000143  00000-0  00000-0 0  9990
2 43700   0.0121 246.7661 0002259 334.3197  13.6437  1.00272615 10492
FOX-1CLIFF (AO-95)      
1 43770U 18099N   21280.46380323  .00001086  00000-0  10315-3 0  9998
2 43770  97.6548 348.1251 0015417  47.9306 312.3224 14.95458591155192
ITASAT 1                
1 43786U 18099AE  21280.42852548  .00000481  00000-0  48175-4 0  9998
2 43786  97.6573 348.8467 0016094  40.9177 319.3249 14.95738039155220
JY1SAT (JO-97)          
1 43803U 18099AX  21280.43987898  .00000434  00000-0  43729-4 0  9994
2 43803  97.6532 348.5988 0015887  40.1927 320.0466 14.96010751155230
UWE-4                   
1 43880U 18111E   21280.48192410  .00001324  00000-0  11988-3 0  9997
2 43880  97.6766 186.2536 0013771  89.2333 271.0466 14.97017176151842
NEXUS (FO-99)           
1 43937U 19003F   21280.38547596  .00003889  00000-0  15143-3 0  9994
2 43937  97.1656 319.0543 0021956 339.7558  20.2809 15.26342635151331
PSAT2 (NO-104)          
1 44354U 19036R   21280.19916169  .00027851  00000-0  35337-3 0  9991
2 44354  28.5258  99.9657 0311380  50.9677 311.8209 15.17263944125944
BRICSAT2 (NO-103)       
1 44355U 19036S   21280.44625624  .00076956 -47913-5  72577-3 0  9990
2 44355  28.5267  32.4106 0230524 160.5929 200.3616 15.38642187126649
JAISAT-1                
1 44419U 19038F   21280.47013246  .00002920  00000-0  16312-3 0  9992
2 44419  97.6016 244.8580 0019133 287.8928  72.0217 15.14182513124743
DUCHIFAT-3              
1 44854U 19089C   21280.39056489  .00001297  00000-0  10951-3 0  9997
2 44854  36.9672 158.5855 0009447 322.3107  37.6993 14.99674474 99919
CAS-6 (TO-108)          
1 44881U 19093C   21280.45133037  .00000170  00000-0  28433-4 0  9998
2 44881  97.9175 358.0232 0013783 291.2440  68.7301 14.81488392 97315
RS-44 & BREEZE-KM R/B   
1 44909U 19096E   21280.42779216  .00000001  00000-0 -41656-4 0  9990
2 44909  82.5248  38.3965 0217380 191.0554 168.5730 12.79711150 83147
ORBITAL FACTORY 2 (OF-2)
1 45113U 19071C   21280.23054152  .00008649  00000-0  24656-3 0  9990
2 45113  51.6416 215.1809 0011088 341.9261  18.1326 15.36832048 94351
HUSKYSAT-1 (HO-107)     
1 45119U 19071J   21280.43758916  .00007585  00000-0  21800-3 0  9993
2 45119  51.6410 213.5548 0010503 339.3692  20.6866 15.36777453 94381
BY70-2                  
1 45857U 20042B   21280.47947149  .00002356  00000-0  33841-3 0  9993
2 45857  97.9781 355.0532 0010747 204.8759 155.1936 14.77361116 68088
SALSAT                  
1 46495U 20068K   21280.60192252  .00000340  00000-0  29371-4 0  9997
2 46495  97.6998 217.4720 0018692  55.6183 304.6804 15.03578791 56186
BY70-3                  
1 46839U 20079N   21280.50900431  .00006832  00000-0  20577-3 0  9996
2 46839  97.2321 352.1486 0007875 153.4658 302.1040 15.34626855 51386
RADFXSAT-2 (AO-109)     
1 47311U 21002C   21280.31146464  .00002523  00000-0  11894-3 0  9991
2 47311  60.6856 232.3349 0040787 104.7656 255.7955 15.22102469 39899
UVSQ-SAT                
1 47438U 21006AB  21280.39533970  .00002060  00000-0  11868-3 0  9992
2 47438  97.4756 339.5638 0014189  74.3085 285.9710 15.13440904 38984
DIY-1 (ARDUIQUBE)       
1 47963U 21022AH  21280.20435243  .00005284  00000-0  34716-3 0  9995
2 47963  97.5467 180.5335 0017706 285.7520  74.1755 15.07911617 28731
